[{"CCSDS_OMM_VERS":"3.0","COMMENT":"GENERATED VIA SPACE-TRACK.ORG API","CREATION_DATE":"2026-06-04T12:20:25","ORIGINATOR":"18 SPCS","OBJECT_NAME":"BEIDOU 3M12","OBJECT_ID":"2018-067B","CENTER_NAME":"EARTH","REF_FRAME":"TEME","TIME_SYSTEM":"UTC","MEAN_ELEMENT_THEORY":"SGP4","EPOCH":"2026-06-04T03:46:06.987648","MEAN_MOTION":"1.86227378","ECCENTRICITY":"0.00044844","INCLINATION":"54.1770","RA_OF_ASC_NODE":"181.4456","ARG_OF_PERICENTER":"14.1881","MEAN_ANOMALY":"345.8817","EPHEMERIS_TYPE":"0","CLASSIFICATION_TYPE":"U","NORAD_CAT_ID":"43603","ELEMENT_SET_NO":"999","REV_AT_EPOCH":"5290","BSTAR":"0.00000000000000","MEAN_MOTION_DOT":"0.00000070","MEAN_MOTION_DDOT":"0.0000000000000","SEMIMAJOR_AXIS":"27906.550","PERIOD":"773.248","APOAPSIS":"21540.930","PERIAPSIS":"21515.901","OBJECT_TYPE":"PAYLOAD","RCS_SIZE":"LARGE","COUNTRY_CODE":"PRC","LAUNCH_DATE":"2018-08-24","SITE":"XSC","DECAY_DATE":null,"FILE":"5229914","GP_ID":"327086782","TLE_LINE0":"0 BEIDOU 3M12","TLE_LINE1":"1 43603U 18067B   26155.15702532  .00000070  00000-0  00000-0 0  9999","TLE_LINE2":"2 43603  54.1770 181.4456 0004484  14.1881 345.8817  1.86227378 52900"},{"CCSDS_OMM_VERS":"3.0","COMMENT":"GENERATED VIA SPACE-TRACK.ORG API","CREATION_DATE":"2026-06-04T22:26:23","ORIGINATOR":"18 SPCS","OBJECT_NAME":"BEIDOU 3M12","OBJECT_ID":"2018-067B","CENTER_NAME":"EARTH","REF_FRAME":"TEME","TIME_SYSTEM":"UTC","MEAN_ELEMENT_THEORY":"SGP4","EPOCH":"2026-06-04T03:46:06.987648","MEAN_MOTION":"1.86227378","ECCENTRICITY":"0.00044840","INCLINATION":"54.1770","RA_OF_ASC_NODE":"181.4456","ARG_OF_PERICENTER":"14.1881","MEAN_ANOMALY":"345.8817","EPHEMERIS_TYPE":"0","CLASSIFICATION_TYPE":"U","NORAD_CAT_ID":"43603","ELEMENT_SET_NO":"999","REV_AT_EPOCH":"5290","BSTAR":"0.00000000000000","MEAN_MOTION_DOT":"0.00000070","MEAN_MOTION_DDOT":"0.0000000000000","SEMIMAJOR_AXIS":"27906.550","PERIOD":"773.248","APOAPSIS":"21540.929","PERIAPSIS":"21515.902","OBJECT_TYPE":"PAYLOAD","RCS_SIZE":"LARGE","COUNTRY_CODE":"PRC","LAUNCH_DATE":"2018-08-24","SITE":"XSC","DECAY_DATE":null,"FILE":"5230093","GP_ID":"327121437","TLE_LINE0":"0 BEIDOU 3M12","TLE_LINE1":"1 43603U 18067B   26155.15702532  .00000070  00000-0  00000+0 0  9998","TLE_LINE2":"2 43603  54.1770 181.4456 0004484  14.1881 345.8817  1.86227378 52900"},{"CCSDS_OMM_VERS":"3.0","COMMENT":"GENERATED VIA SPACE-TRACK.ORG API","CREATION_DATE":"2026-06-05T11:08:39","ORIGINATOR":"18 SPCS","OBJECT_NAME":"BEIDOU 3M12","OBJECT_ID":"2018-067B","CENTER_NAME":"EARTH","REF_FRAME":"TEME","TIME_SYSTEM":"UTC","MEAN_ELEMENT_THEORY":"SGP4","EPOCH":"2026-06-05T05:32:33.210816","MEAN_MOTION":"1.86227380","ECCENTRICITY":"0.00044885","INCLINATION":"54.1770","RA_OF_ASC_NODE":"181.4093","ARG_OF_PERICENTER":"14.1662","MEAN_ANOMALY":"345.9003","EPHEMERIS_TYPE":"0","CLASSIFICATION_TYPE":"U","NORAD_CAT_ID":"43603","ELEMENT_SET_NO":"999","REV_AT_EPOCH":"5292","BSTAR":"0.00000000000000","MEAN_MOTION_DOT":"0.00000077","MEAN_MOTION_DDOT":"0.0000000000000","SEMIMAJOR_AXIS":"27906.550","PERIOD":"773.248","APOAPSIS":"21540.941","PERIAPSIS":"21515.889","OBJECT_TYPE":"PAYLOAD","RCS_SIZE":"LARGE","COUNTRY_CODE":"PRC","LAUNCH_DATE":"2018-08-24","SITE":"XSC","DECAY_DATE":null,"FILE":"5231022","GP_ID":"327257563","TLE_LINE0":"0 BEIDOU 3M12","TLE_LINE1":"1 43603U 18067B   26156.23093994  .00000077  00000-0  00000-0 0  9991","TLE_LINE2":"2 43603  54.1770 181.4093 0004489  14.1662 345.9003  1.86227380 52922"},{"CCSDS_OMM_VERS":"3.0","COMMENT":"GENERATED VIA SPACE-TRACK.ORG API","CREATION_DATE":"2026-06-05T08:06:49","ORIGINATOR":"18 SPCS","OBJECT_NAME":"BEIDOU 3M12","OBJECT_ID":"2018-067B","CENTER_NAME":"EARTH","REF_FRAME":"TEME","TIME_SYSTEM":"UTC","MEAN_ELEMENT_THEORY":"SGP4","EPOCH":"2026-06-05T05:32:33.210816","MEAN_MOTION":"1.86227380","ECCENTRICITY":"0.00044890","INCLINATION":"54.1770","RA_OF_ASC_NODE":"181.4093","ARG_OF_PERICENTER":"14.1662","MEAN_ANOMALY":"345.9003","EPHEMERIS_TYPE":"0","CLASSIFICATION_TYPE":"U","NORAD_CAT_ID":"43603","ELEMENT_SET_NO":"999","REV_AT_EPOCH":"5292","BSTAR":"0.00000000000000","MEAN_MOTION_DOT":"0.00000077","MEAN_MOTION_DDOT":"0.0000000000000","SEMIMAJOR_AXIS":"27906.550","PERIOD":"773.248","APOAPSIS":"21540.942","PERIAPSIS":"21515.888","OBJECT_TYPE":"PAYLOAD","RCS_SIZE":"LARGE","COUNTRY_CODE":"PRC","LAUNCH_DATE":"2018-08-24","SITE":"XSC","DECAY_DATE":null,"FILE":"5230574","GP_ID":"327198031","TLE_LINE0":"0 BEIDOU 3M12","TLE_LINE1":"1 43603U 18067B   26156.23093994  .00000077  00000-0  00000+0 0  9990","TLE_LINE2":"2 43603  54.1770 181.4093 0004489  14.1662 345.9003  1.86227380 52922"},{"CCSDS_OMM_VERS":"3.0","COMMENT":"GENERATED VIA SPACE-TRACK.ORG API","CREATION_DATE":"2026-06-06T10:37:48","ORIGINATOR":"18 SPCS","OBJECT_NAME":"BEIDOU 3M12","OBJECT_ID":"2018-067B","CENTER_NAME":"EARTH","REF_FRAME":"TEME","TIME_SYSTEM":"UTC","MEAN_ELEMENT_THEORY":"SGP4","EPOCH":"2026-06-05T18:25:46.368192","MEAN_MOTION":"1.86227385","ECCENTRICITY":"0.00044788","INCLINATION":"54.1771","RA_OF_ASC_NODE":"181.3911","ARG_OF_PERICENTER":"14.0702","MEAN_ANOMALY":"345.9952","EPHEMERIS_TYPE":"0","CLASSIFICATION_TYPE":"U","NORAD_CAT_ID":"43603","ELEMENT_SET_NO":"999","REV_AT_EPOCH":"5293","BSTAR":"0.00000000000000","MEAN_MOTION_DOT":"0.00000081","MEAN_MOTION_DDOT":"0.0000000000000","SEMIMAJOR_AXIS":"27906.550","PERIOD":"773.248","APOAPSIS":"21540.913","PERIAPSIS":"21515.916","OBJECT_TYPE":"PAYLOAD","RCS_SIZE":"LARGE","COUNTRY_CODE":"PRC","LAUNCH_DATE":"2018-08-24","SITE":"XSC","DECAY_DATE":null,"FILE":"5232600","GP_ID":"327470313","TLE_LINE0":"0 BEIDOU 3M12","TLE_LINE1":"1 43603U 18067B   26156.76789778  .00000081  00000-0  00000-0 0  9996","TLE_LINE2":"2 43603  54.1771 181.3911 0004479  14.0702 345.9952  1.86227385 52933"},{"CCSDS_OMM_VERS":"3.0","COMMENT":"GENERATED VIA SPACE-TRACK.ORG API","CREATION_DATE":"2026-06-06T16:36:28","ORIGINATOR":"18 SPCS","OBJECT_NAME":"BEIDOU 3M12","OBJECT_ID":"2018-067B","CENTER_NAME":"EARTH","REF_FRAME":"TEME","TIME_SYSTEM":"UTC","MEAN_ELEMENT_THEORY":"SGP4","EPOCH":"2026-06-05T18:25:46.368192","MEAN_MOTION":"1.86227385","ECCENTRICITY":"0.00044790","INCLINATION":"54.1771","RA_OF_ASC_NODE":"181.3911","ARG_OF_PERICENTER":"14.0702","MEAN_ANOMALY":"345.9952","EPHEMERIS_TYPE":"0","CLASSIFICATION_TYPE":"U","NORAD_CAT_ID":"43603","ELEMENT_SET_NO":"999","REV_AT_EPOCH":"5293","BSTAR":"0.00000000000000","MEAN_MOTION_DOT":"0.00000081","MEAN_MOTION_DDOT":"0.0000000000000","SEMIMAJOR_AXIS":"27906.550","PERIOD":"773.248","APOAPSIS":"21540.914","PERIAPSIS":"21515.915","OBJECT_TYPE":"PAYLOAD","RCS_SIZE":"LARGE","COUNTRY_CODE":"PRC","LAUNCH_DATE":"2018-08-24","SITE":"XSC","DECAY_DATE":null,"FILE":"5232836","GP_ID":"327511589","TLE_LINE0":"0 BEIDOU 3M12","TLE_LINE1":"1 43603U 18067B   26156.76789778  .00000081  00000-0  00000+0 0  9995","TLE_LINE2":"2 43603  54.1771 181.3911 0004479  14.0702 345.9952  1.86227385 52933"},{"CCSDS_OMM_VERS":"3.0","COMMENT":"GENERATED VIA SPACE-TRACK.ORG API","CREATION_DATE":"2026-06-08T10:56:51","ORIGINATOR":"18 SPCS","OBJECT_NAME":"BEIDOU 3M12","OBJECT_ID":"2018-067B","CENTER_NAME":"EARTH","REF_FRAME":"TEME","TIME_SYSTEM":"UTC","MEAN_ELEMENT_THEORY":"SGP4","EPOCH":"2026-06-06T20:12:12.929184","MEAN_MOTION":"1.86227396","ECCENTRICITY":"0.00044751","INCLINATION":"54.1771","RA_OF_ASC_NODE":"181.3547","ARG_OF_PERICENTER":"14.0592","MEAN_ANOMALY":"346.0057","EPHEMERIS_TYPE":"0","CLASSIFICATION_TYPE":"U","NORAD_CAT_ID":"43603","ELEMENT_SET_NO":"999","REV_AT_EPOCH":"5295","BSTAR":"0.00000000000000","MEAN_MOTION_DOT":"0.00000093","MEAN_MOTION_DDOT":"0.0000000000000","SEMIMAJOR_AXIS":"27906.549","PERIOD":"773.248","APOAPSIS":"21540.902","PERIAPSIS":"21515.925","OBJECT_TYPE":"PAYLOAD","RCS_SIZE":"LARGE","COUNTRY_CODE":"PRC","LAUNCH_DATE":"2018-08-24","SITE":"XSC","DECAY_DATE":null,"FILE":"5237053","GP_ID":"328028238","TLE_LINE0":"0 BEIDOU 3M12","TLE_LINE1":"1 43603U 18067B   26157.84181631  .00000093  00000-0  00000-0 0  9993","TLE_LINE2":"2 43603  54.1771 181.3547 0004475  14.0592 346.0057  1.86227396 52953"},{"CCSDS_OMM_VERS":"3.0","COMMENT":"GENERATED VIA SPACE-TRACK.ORG API","CREATION_DATE":"2026-06-07T19:26:49","ORIGINATOR":"18 SPCS","OBJECT_NAME":"BEIDOU 3M12","OBJECT_ID":"2018-067B","CENTER_NAME":"EARTH","REF_FRAME":"TEME","TIME_SYSTEM":"UTC","MEAN_ELEMENT_THEORY":"SGP4","EPOCH":"2026-06-06T20:12:12.929184","MEAN_MOTION":"1.86227396","ECCENTRICITY":"0.00044750","INCLINATION":"54.1771","RA_OF_ASC_NODE":"181.3547","ARG_OF_PERICENTER":"14.0592","MEAN_ANOMALY":"346.0057","EPHEMERIS_TYPE":"0","CLASSIFICATION_TYPE":"U","NORAD_CAT_ID":"43603","ELEMENT_SET_NO":"999","REV_AT_EPOCH":"5295","BSTAR":"0.00000000000000","MEAN_MOTION_DOT":"0.00000093","MEAN_MOTION_DDOT":"0.0000000000000","SEMIMAJOR_AXIS":"27906.549","PERIOD":"773.248","APOAPSIS":"21540.902","PERIAPSIS":"21515.925","OBJECT_TYPE":"PAYLOAD","RCS_SIZE":"LARGE","COUNTRY_CODE":"PRC","LAUNCH_DATE":"2018-08-24","SITE":"XSC","DECAY_DATE":null,"FILE":"5235000","GP_ID":"327816364","TLE_LINE0":"0 BEIDOU 3M12","TLE_LINE1":"1 43603U 18067B   26157.84181631  .00000093  00000-0  00000+0 0  9992","TLE_LINE2":"2 43603  54.1771 181.3547 0004475  14.0592 346.0057  1.86227396 52953"}]